[{"OBJECT_NAME":"DELTA 1 DEB","OBJECT_ID":"1977-065CN","EPOCH":"2026-03-14T14:34:54.353856","MEAN_MOTION":16.07688855,"ECCENTRICITY":0.00054248,"INCLINATION":28.9751,"RA_OF_ASC_NODE":188.862,"ARG_OF_PERICENTER":237.852,"MEAN_ANOMALY":122.1579,"EPHEMERIS_TYPE":0,"CLASSIFICATION_TYPE":"U","NORAD_CAT_ID":10261,"ELEMENT_SET_NO":999,"REV_AT_EPOCH":47806,"BSTAR":0.0049204969,"MEAN_MOTION_DOT":0.03478823,"MEAN_MOTION_DDOT":0.018366005},{"OBJECT_NAME":"COSMOS 1908","OBJECT_ID":"1988-001A","EPOCH":"2026-03-14T12:53:56.067072","MEAN_MOTION":15.95380897,"ECCENTRICITY":0.00054449,"INCLINATION":82.4357,"RA_OF_ASC_NODE":96.0172,"ARG_OF_PERICENTER":173.6256,"MEAN_ANOMALY":186.509,"EPHEMERIS_TYPE":0,"CLASSIFICATION_TYPE":"U","NORAD_CAT_ID":18748,"ELEMENT_SET_NO":999,"REV_AT_EPOCH":9167,"BSTAR":0.00086886141,"MEAN_MOTION_DOT":0.00342009,"MEAN_MOTION_DDOT":4.4646474e-5},{"OBJECT_NAME":"CZ-2D DEB","OBJECT_ID":"2005-024J","EPOCH":"2026-03-11T21:08:51.902592","MEAN_MOTION":15.9816804,"ECCENTRICITY":0.00039515,"INCLINATION":97.1411,"RA_OF_ASC_NODE":113.6468,"ARG_OF_PERICENTER":141.8178,"MEAN_ANOMALY":218.3381,"EPHEMERIS_TYPE":0,"CLASSIFICATION_TYPE":"U","NORAD_CAT_ID":31409,"ELEMENT_SET_NO":999,"REV_AT_EPOCH":11877,"BSTAR":0.00071048273,"MEAN_MOTION_DOT":0.00324446,"MEAN_MOTION_DDOT":4.4977035e-5},{"OBJECT_NAME":"ZIYUAN 3-01 (ZY 3-01)","OBJECT_ID":"2012-001A","EPOCH":"2026-03-15T00:58:24.458304","MEAN_MOTION":16.11873672,"ECCENTRICITY":0.0006099,"INCLINATION":97.1592,"RA_OF_ASC_NODE":149.4422,"ARG_OF_PERICENTER":248.9409,"MEAN_ANOMALY":111.1224,"EPHEMERIS_TYPE":0,"CLASSIFICATION_TYPE":"U","NORAD_CAT_ID":38046,"ELEMENT_SET_NO":999,"REV_AT_EPOCH":78956,"BSTAR":0.00099324,"MEAN_MOTION_DOT":0.01033273,"MEAN_MOTION_DDOT":0.00066659},{"OBJECT_NAME":"ATLAS CENTAUR R/B","OBJECT_ID":"2012-048N","EPOCH":"2026-03-14T22:32:20.532192","MEAN_MOTION":15.97706216,"ECCENTRICITY":0.00193994,"INCLINATION":64.6194,"RA_OF_ASC_NODE":208.4066,"ARG_OF_PERICENTER":243.189,"MEAN_ANOMALY":116.7289,"EPHEMERIS_TYPE":0,"CLASSIFICATION_TYPE":"U","NORAD_CAT_ID":38770,"ELEMENT_SET_NO":999,"REV_AT_EPOCH":10415,"BSTAR":0.0012325493,"MEAN_MOTION_DOT":0.00568324,"MEAN_MOTION_DDOT":0.00014497091},{"OBJECT_NAME":"NOAA 16 DEB","OBJECT_ID":"2000-055AJ","EPOCH":"2026-03-14T17:45:41.821632","MEAN_MOTION":15.94781109,"ECCENTRICITY":0.00093904,"INCLINATION":99.055,"RA_OF_ASC_NODE":250.9128,"ARG_OF_PERICENTER":6.565,"MEAN_ANOMALY":353.5741,"EPHEMERIS_TYPE":0,"CLASSIFICATION_TYPE":"U","NORAD_CAT_ID":41075,"ELEMENT_SET_NO":999,"REV_AT_EPOCH":55151,"BSTAR":0.0061075274,"MEAN_MOTION_DOT":0.02232221,"MEAN_MOTION_DDOT":0.0032662039},{"OBJECT_NAME":"STARLINK-1031","OBJECT_ID":"2019-074Z","EPOCH":"2026-03-14T22:00:01.999584","MEAN_MOTION":15.93438163,"ECCENTRICITY":0.00050842,"INCLINATION":53.0372,"RA_OF_ASC_NODE":93.3389,"ARG_OF_PERICENTER":27.4174,"MEAN_ANOMALY":4.4882,"EPHEMERIS_TYPE":0,"CLASSIFICATION_TYPE":"U","NORAD_CAT_ID":44736,"ELEMENT_SET_NO":999,"REV_AT_EPOCH":605,"BSTAR":0.00091645612,"MEAN_MOTION_DOT":0.00332903,"MEAN_MOTION_DDOT":5.3840263e-5},{"OBJECT_NAME":"STARLINK-1053","OBJECT_ID":"2019-074AX","EPOCH":"2026-03-14T22:00:01.999584","MEAN_MOTION":15.95671722,"ECCENTRICITY":0.00066555,"INCLINATION":53.0261,"RA_OF_ASC_NODE":56.6586,"ARG_OF_PERICENTER":86.627,"MEAN_ANOMALY":108.6452,"EPHEMERIS_TYPE":0,"CLASSIFICATION_TYPE":"U","NORAD_CAT_ID":44758,"ELEMENT_SET_NO":999,"REV_AT_EPOCH":605,"BSTAR":0.0012393059,"MEAN_MOTION_DOT":0.0050929,"MEAN_MOTION_DDOT":0.000117274},{"OBJECT_NAME":"ELECTRON KICK STAGE R/B","OBJECT_ID":"2020-007B","EPOCH":"2026-03-14T18:12:19.317024","MEAN_MOTION":16.04629184,"ECCENTRICITY":0.00127409,"INCLINATION":69.9479,"RA_OF_ASC_NODE":166.0688,"ARG_OF_PERICENTER":315.3474,"MEAN_ANOMALY":44.6712,"EPHEMERIS_TYPE":0,"CLASSIFICATION_TYPE":"U","NORAD_CAT_ID":45111,"ELEMENT_SET_NO":999,"REV_AT_EPOCH":10276,"BSTAR":0.0017048463,"MEAN_MOTION_DOT":0.01144358,"MEAN_MOTION_DDOT":0.00073223889},{"OBJECT_NAME":"STARLINK-1298","OBJECT_ID":"2020-019BF","EPOCH":"2026-03-14T22:12:53.076384","MEAN_MOTION":16.01051692,"ECCENTRICITY":0.00040218,"INCLINATION":53.0336,"RA_OF_ASC_NODE":26.8499,"ARG_OF_PERICENTER":51.3269,"MEAN_ANOMALY":308.812,"EPHEMERIS_TYPE":0,"CLASSIFICATION_TYPE":"U","NORAD_CAT_ID":45413,"ELEMENT_SET_NO":999,"REV_AT_EPOCH":33195,"BSTAR":0.00085213,"MEAN_MOTION_DOT":0.00472777,"MEAN_MOTION_DDOT":0.00010919913},{"OBJECT_NAME":"STARLINK-1398","OBJECT_ID":"2020-035AU","EPOCH":"2026-03-14T21:29:25.355904","MEAN_MOTION":16.00418212,"ECCENTRICITY":0.0004581,"INCLINATION":53.0322,"RA_OF_ASC_NODE":272.3645,"ARG_OF_PERICENTER":251.1663,"MEAN_ANOMALY":108.8869,"EPHEMERIS_TYPE":0,"CLASSIFICATION_TYPE":"U","NORAD_CAT_ID":45699,"ELEMENT_SET_NO":999,"REV_AT_EPOCH":32135,"BSTAR":0.00080635676,"MEAN_MOTION_DOT":0.00431216,"MEAN_MOTION_DDOT":9.1318695e-5},{"OBJECT_NAME":"STARLINK-1484","OBJECT_ID":"2020-038AC","EPOCH":"2026-03-15T02:48:20.674080","MEAN_MOTION":16.1170429,"ECCENTRICITY":0.0003907,"INCLINATION":52.9956,"RA_OF_ASC_NODE":28.1804,"ARG_OF_PERICENTER":119.6452,"MEAN_ANOMALY":240.4971,"EPHEMERIS_TYPE":0,"CLASSIFICATION_TYPE":"U","NORAD_CAT_ID":45756,"ELEMENT_SET_NO":999,"REV_AT_EPOCH":31957,"BSTAR":0.00092233,"MEAN_MOTION_DOT":0.00991851,"MEAN_MOTION_DDOT":0.00060505},{"OBJECT_NAME":"STARLINK-1587","OBJECT_ID":"2020-057AS","EPOCH":"2026-03-14T23:46:03.476928","MEAN_MOTION":16.05054201,"ECCENTRICITY":0.0008655,"INCLINATION":53.0281,"RA_OF_ASC_NODE":188.8638,"ARG_OF_PERICENTER":329.4264,"MEAN_ANOMALY":30.6262,"EPHEMERIS_TYPE":0,"CLASSIFICATION_TYPE":"U","NORAD_CAT_ID":46157,"ELEMENT_SET_NO":999,"REV_AT_EPOCH":30832,"BSTAR":0.0016981,"MEAN_MOTION_DOT":0.01192675,"MEAN_MOTION_DDOT":0.00081266},{"OBJECT_NAME":"STARLINK-1752","OBJECT_ID":"2020-062P","EPOCH":"2026-03-14T22:00:01.999584","MEAN_MOTION":15.97062463,"ECCENTRICITY":0.00057502,"INCLINATION":53.0355,"RA_OF_ASC_NODE":300.2129,"ARG_OF_PERICENTER":255.124,"MEAN_ANOMALY":116.2432,"EPHEMERIS_TYPE":0,"CLASSIFICATION_TYPE":"U","NORAD_CAT_ID":46338,"ELEMENT_SET_NO":999,"REV_AT_EPOCH":599,"BSTAR":0.0012837993,"MEAN_MOTION_DOT":0.00569148,"MEAN_MOTION_DDOT":0.00014788846},{"OBJECT_NAME":"STARLINK-1726","OBJECT_ID":"2020-062AP","EPOCH":"2026-03-14T22:03:47.981376","MEAN_MOTION":16.03106872,"ECCENTRICITY":0.0006241,"INCLINATION":53.032,"RA_OF_ASC_NODE":233.1792,"ARG_OF_PERICENTER":276.6063,"MEAN_ANOMALY":83.4257,"EPHEMERIS_TYPE":0,"CLASSIFICATION_TYPE":"U","NORAD_CAT_ID":46362,"ELEMENT_SET_NO":999,"REV_AT_EPOCH":30678,"BSTAR":0.0014139,"MEAN_MOTION_DOT":0.00885583,"MEAN_MOTION_DDOT":0.00040242},{"OBJECT_NAME":"STARLINK-1648","OBJECT_ID":"2020-070B","EPOCH":"2026-03-14T22:00:01.999584","MEAN_MOTION":15.95337778,"ECCENTRICITY":0.00059938,"INCLINATION":53.0412,"RA_OF_ASC_NODE":99.1596,"ARG_OF_PERICENTER":2.3837,"MEAN_ANOMALY":176.8754,"EPHEMERIS_TYPE":0,"CLASSIFICATION_TYPE":"U","NORAD_CAT_ID":46533,"ELEMENT_SET_NO":999,"REV_AT_EPOCH":598,"BSTAR":0.0014761475,"MEAN_MOTION_DOT":0.00595702,"MEAN_MOTION_DDOT":0.00015817032}]
