DELTA 1 DEB             
1 10261U 77065CN  26073.60757354  .03478823  18366-1  49205-2 0  9992
2 10261  28.9751 188.8620 0005424 237.8520 122.1579 16.07688855478065
COSMOS 1908             
1 18748U 88001A   26073.53745448  .00342009  44646-4  86886-3 0  9998
2 18748  82.4357  96.0172 0005444 173.6256 186.5090 15.95380897 91678
CZ-2D DEB               
1 31409U 05024J   26070.88115628  .00324446  44977-4  71048-3 0  9993
2 31409  97.1411 113.6468 0003951 141.8178 218.3381 15.98168040118771
ZIYUAN 3-01 (ZY 3-01)   
1 38046U 12001A   26074.04056086  .01033273  66659-3  99324-3 0  9997
2 38046  97.1592 149.4422 0006099 248.9409 111.1224 16.11873672789561
ATLAS CENTAUR R/B       
1 38770U 12048N   26073.93912653  .00568324  14497-3  12325-2 0  9997
2 38770  64.6194 208.4066 0019399 243.1890 116.7289 15.97706216104150
NOAA 16 DEB             
1 41075U 00055AJ  26073.74006738  .02232221  32662-2  61075-2 0  9996
2 41075  99.0550 250.9128 0009390   6.5650 353.5741 15.94781109551517
STARLINK-1031           
1 44736U 19074Z   26073.91668981  .00332903  53840-4  91646-3 0  9994
2 44736  53.0372  93.3389 0005084  27.4174   4.4882 15.93438163  6053
STARLINK-1053           
1 44758U 19074AX  26073.91668981  .00509290  11727-3  12393-2 0  9991
2 44758  53.0261  56.6586 0006655  86.6270 108.6452 15.95671722  6056
ELECTRON KICK STAGE R/B 
1 45111U 20007B   26073.75855691  .01144358  73224-3  17048-2 0  9994
2 45111  69.9479 166.0688 0012740 315.3474  44.6712 16.04629184102765
STARLINK-1298           
1 45413U 20019BF  26073.92561431  .00472777  10920-3  85213-3 0  9999
2 45413  53.0336  26.8499 0004021  51.3269 308.8120 16.01051692331954
STARLINK-1398           
1 45699U 20035AU  26073.89543236  .00431216  91319-4  80636-3 0  9991
2 45699  53.0322 272.3645 0004581 251.1663 108.8869 16.00418212321350
STARLINK-1484           
1 45756U 20038AC  26074.11690595  .00991851  60505-3  92233-3 0  9999
2 45756  52.9956  28.1804 0003907 119.6452 240.4971 16.11704290319578
STARLINK-1587           
1 46157U 20057AS  26073.99031802  .01192675  81266-3  16981-2 0  9991
2 46157  53.0281 188.8638 0008655 329.4264  30.6262 16.05054201308329
STARLINK-1752           
1 46338U 20062P   26073.91668981  .00569148  14789-3  12838-2 0  9999
2 46338  53.0355 300.2129 0005750 255.1240 116.2432 15.97062463  5995
STARLINK-1726           
1 46362U 20062AP  26073.91930534  .00885583  40242-3  14139-2 0  9995
2 46362  53.0320 233.1792 0006241 276.6063  83.4257 16.03106872306783
STARLINK-1648           
1 46533U 20070B   26073.91668981  .00595702  15817-3  14761-2 0  9990
2 46533  53.0412  99.1596 0005993   2.3837 176.8754 15.95337778  5981
